[{"OBJECT_NAME":"USA 157 (MILSTAR-2 2)","OBJECT_ID":"2001-009A","EPOCH":"2026-04-05T11:44:17.183328","MEAN_MOTION":1.00268177,"ECCENTRICITY":0.0037469,"INCLINATION":11.4641,"RA_OF_ASC_NODE":20.2073,"ARG_OF_PERICENTER":181.6456,"MEAN_ANOMALY":18.0076,"EPHEMERIS_TYPE":0,"CLASSIFICATION_TYPE":"U","NORAD_CAT_ID":26715,"ELEMENT_SET_NO":999,"REV_AT_EPOCH":3221,"BSTAR":0,"MEAN_MOTION_DOT":1.11e-6,"MEAN_MOTION_DDOT":0},{"OBJECT_NAME":"TITAN 4 CENTAUR R/B","OBJECT_ID":"2001-009B","EPOCH":"2026-03-31T14:36:26.038944","MEAN_MOTION":1.00465344,"ECCENTRICITY":0.00135431,"INCLINATION":12.569,"RA_OF_ASC_NODE":12.8598,"ARG_OF_PERICENTER":143.8283,"MEAN_ANOMALY":216.2324,"EPHEMERIS_TYPE":0,"CLASSIFICATION_TYPE":"U","NORAD_CAT_ID":26716,"ELEMENT_SET_NO":999,"REV_AT_EPOCH":2547,"BSTAR":0,"MEAN_MOTION_DOT":-2.46e-6,"MEAN_MOTION_DDOT":0},{"OBJECT_NAME":"ARIANE 2 DEB","OBJECT_ID":"1989-006C","EPOCH":"2026-04-05T05:09:54.055008","MEAN_MOTION":2.26353815,"ECCENTRICITY":0.71687137,"INCLINATION":7.6997,"RA_OF_ASC_NODE":178.5013,"ARG_OF_PERICENTER":236.5171,"MEAN_ANOMALY":121.1537,"EPHEMERIS_TYPE":0,"CLASSIFICATION_TYPE":"U","NORAD_CAT_ID":26717,"ELEMENT_SET_NO":999,"REV_AT_EPOCH":20882,"BSTAR":0.0016453099,"MEAN_MOTION_DOT":7.4e-7,"MEAN_MOTION_DDOT":0},{"OBJECT_NAME":"ARIANE 5 R/B","OBJECT_ID":"2001-011C","EPOCH":"2026-04-05T12:56:43.600128","MEAN_MOTION":2.24567027,"ECCENTRICITY":0.70531362,"INCLINATION":1.9292,"RA_OF_ASC_NODE":321.707,"ARG_OF_PERICENTER":142.4655,"MEAN_ANOMALY":120.1996,"EPHEMERIS_TYPE":0,"CLASSIFICATION_TYPE":"U","NORAD_CAT_ID":26721,"ELEMENT_SET_NO":999,"REV_AT_EPOCH":20578,"BSTAR":0.0012740647,"MEAN_MOTION_DOT":-3.6e-7,"MEAN_MOTION_DDOT":0},{"OBJECT_NAME":"ARIANE 5 DEB [SYLDA]","OBJECT_ID":"2001-011D","EPOCH":"2026-04-05T04:34:41.041056","MEAN_MOTION":2.22959847,"ECCENTRICITY":0.70763792,"INCLINATION":2.4377,"RA_OF_ASC_NODE":338.292,"ARG_OF_PERICENTER":99.2222,"MEAN_ANOMALY":339.5125,"EPHEMERIS_TYPE":0,"CLASSIFICATION_TYPE":"U","NORAD_CAT_ID":26722,"ELEMENT_SET_NO":999,"REV_AT_EPOCH":20428,"BSTAR":0.010534046,"MEAN_MOTION_DOT":1.01e-6,"MEAN_MOTION_DDOT":0},{"OBJECT_NAME":"BLOCK DM-SL R/B","OBJECT_ID":"2001-012B","EPOCH":"2026-04-05T12:20:27.304224","MEAN_MOTION":2.23578787,"ECCENTRICITY":0.70531127,"INCLINATION":1.5039,"RA_OF_ASC_NODE":19.0039,"ARG_OF_PERICENTER":97.7676,"MEAN_ANOMALY":168.0999,"EPHEMERIS_TYPE":0,"CLASSIFICATION_TYPE":"U","NORAD_CAT_ID":26725,"ELEMENT_SET_NO":999,"REV_AT_EPOCH":20470,"BSTAR":0.0011156169,"MEAN_MOTION_DOT":-5.3e-7,"MEAN_MOTION_DDOT":0},{"OBJECT_NAME":"EKRAN 21","OBJECT_ID":"2001-014A","EPOCH":"2026-04-05T06:36:38.856672","MEAN_MOTION":0.99585132,"ECCENTRICITY":0.00284164,"INCLINATION":14.5776,"RA_OF_ASC_NODE":13.7222,"ARG_OF_PERICENTER":68.4123,"MEAN_ANOMALY":132.0753,"EPHEMERIS_TYPE":0,"CLASSIFICATION_TYPE":"U","NORAD_CAT_ID":26736,"ELEMENT_SET_NO":999,"REV_AT_EPOCH":9120,"BSTAR":0,"MEAN_MOTION_DOT":-1.7e-6,"MEAN_MOTION_DDOT":0},{"OBJECT_NAME":"BREEZE-M R/B","OBJECT_ID":"2001-014C","EPOCH":"2026-04-05T06:09:18.252864","MEAN_MOTION":0.97963367,"ECCENTRICITY":0.0179604,"INCLINATION":15.1923,"RA_OF_ASC_NODE":14.8282,"ARG_OF_PERICENTER":233.6189,"MEAN_ANOMALY":282.2115,"EPHEMERIS_TYPE":0,"CLASSIFICATION_TYPE":"U","NORAD_CAT_ID":26738,"ELEMENT_SET_NO":999,"REV_AT_EPOCH":8944,"BSTAR":0,"MEAN_MOTION_DOT":-5.8e-7,"MEAN_MOTION_DDOT":0},{"OBJECT_NAME":"GSAT-1","OBJECT_ID":"2001-015A","EPOCH":"2026-04-05T14:54:37.549152","MEAN_MOTION":1.03822757,"ECCENTRICITY":0.02370721,"INCLINATION":12.7728,"RA_OF_ASC_NODE":4.3731,"ARG_OF_PERICENTER":292.2206,"MEAN_ANOMALY":187.7757,"EPHEMERIS_TYPE":0,"CLASSIFICATION_TYPE":"U","NORAD_CAT_ID":26745,"ELEMENT_SET_NO":999,"REV_AT_EPOCH":9477,"BSTAR":0,"MEAN_MOTION_DOT":-2.77e-6,"MEAN_MOTION_DDOT":0},{"OBJECT_NAME":"BLOCK DM-SL R/B","OBJECT_ID":"2001-018B","EPOCH":"2026-04-05T12:18:20.006784","MEAN_MOTION":2.23847514,"ECCENTRICITY":0.70458542,"INCLINATION":1.1278,"RA_OF_ASC_NODE":79.7753,"ARG_OF_PERICENTER":71.1686,"MEAN_ANOMALY":38.6692,"EPHEMERIS_TYPE":0,"CLASSIFICATION_TYPE":"U","NORAD_CAT_ID":26762,"ELEMENT_SET_NO":999,"REV_AT_EPOCH":20381,"BSTAR":-0.0010692453,"MEAN_MOTION_DOT":-1.52e-6,"MEAN_MOTION_DDOT":0},{"OBJECT_NAME":"BLOCK DM R/B","OBJECT_ID":"2001-019D","EPOCH":"2026-04-05T11:37:38.685792","MEAN_MOTION":1.86702133,"ECCENTRICITY":0.5172865,"INCLINATION":18.5372,"RA_OF_ASC_NODE":10.761,"ARG_OF_PERICENTER":348.2027,"MEAN_ANOMALY":203.2955,"EPHEMERIS_TYPE":0,"CLASSIFICATION_TYPE":"U","NORAD_CAT_ID":26769,"ELEMENT_SET_NO":999,"REV_AT_EPOCH":16978,"BSTAR":0,"MEAN_MOTION_DOT":-1.87e-6,"MEAN_MOTION_DDOT":0},{"OBJECT_NAME":"ARIANE 3 DEB","OBJECT_ID":"1988-081H","EPOCH":"2026-04-04T20:15:42.037920","MEAN_MOTION":2.17374751,"ECCENTRICITY":0.70455479,"INCLINATION":6.3728,"RA_OF_ASC_NODE":349.2805,"ARG_OF_PERICENTER":5.0963,"MEAN_ANOMALY":9.0095,"EPHEMERIS_TYPE":0,"CLASSIFICATION_TYPE":"U","NORAD_CAT_ID":26807,"ELEMENT_SET_NO":999,"REV_AT_EPOCH":21101,"BSTAR":0,"MEAN_MOTION_DOT":-1.86e-6,"MEAN_MOTION_DDOT":0},{"OBJECT_NAME":"ARIANE 44LP DEB","OBJECT_ID":"1988-109P","EPOCH":"2026-04-05T12:42:13.633344","MEAN_MOTION":2.21748646,"ECCENTRICITY":0.70170547,"INCLINATION":6.2711,"RA_OF_ASC_NODE":190.8375,"ARG_OF_PERICENTER":169.485,"MEAN_ANOMALY":332.4226,"EPHEMERIS_TYPE":0,"CLASSIFICATION_TYPE":"U","NORAD_CAT_ID":26812,"ELEMENT_SET_NO":999,"REV_AT_EPOCH":22858,"BSTAR":0,"MEAN_MOTION_DOT":-1.76e-6,"MEAN_MOTION_DDOT":0},{"OBJECT_NAME":"SL-12 R/B(2)","OBJECT_ID":"2001-025C","EPOCH":"2026-04-04T14:08:01.078368","MEAN_MOTION":1.8479096,"ECCENTRICITY":0.4960098,"INCLINATION":15.0485,"RA_OF_ASC_NODE":111.2632,"ARG_OF_PERICENTER":255.2441,"MEAN_ANOMALY":62.664,"EPHEMERIS_TYPE":0,"CLASSIFICATION_TYPE":"U","NORAD_CAT_ID":26855,"ELEMENT_SET_NO":999,"REV_AT_EPOCH":16742,"BSTAR":0,"MEAN_MOTION_DOT":-1.31e-6,"MEAN_MOTION_DDOT":0},{"OBJECT_NAME":"IUS R/B(2)","OBJECT_ID":"2001-033D","EPOCH":"2026-04-04T15:44:25.234368","MEAN_MOTION":0.99897006,"ECCENTRICITY":0.00072112,"INCLINATION":12.8536,"RA_OF_ASC_NODE":17.2403,"ARG_OF_PERICENTER":4.696,"MEAN_ANOMALY":355.2658,"EPHEMERIS_TYPE":0,"CLASSIFICATION_TYPE":"U","NORAD_CAT_ID":26883,"ELEMENT_SET_NO":999,"REV_AT_EPOCH":2505,"BSTAR":0,"MEAN_MOTION_DOT":-2.93e-6,"MEAN_MOTION_DDOT":0},{"OBJECT_NAME":"COSMOS 2379","OBJECT_ID":"2001-037A","EPOCH":"2026-04-04T14:24:51.674112","MEAN_MOTION":1.00306619,"ECCENTRICITY":0.0005863,"INCLINATION":13.2009,"RA_OF_ASC_NODE":14.8153,"ARG_OF_PERICENTER":246.4407,"MEAN_ANOMALY":276.9314,"EPHEMERIS_TYPE":0,"CLASSIFICATION_TYPE":"U","NORAD_CAT_ID":26892,"ELEMENT_SET_NO":999,"REV_AT_EPOCH":9012,"BSTAR":0,"MEAN_MOTION_DOT":-3.51e-6,"MEAN_MOTION_DDOT":0},{"OBJECT_NAME":"SL-12 R/B(2)","OBJECT_ID":"2001-037D","EPOCH":"2026-04-05T13:34:30.139968","MEAN_MOTION":1.00186763,"ECCENTRICITY":0.0019835,"INCLINATION":13.1966,"RA_OF_ASC_NODE":15.0366,"ARG_OF_PERICENTER":77.3336,"MEAN_ANOMALY":32.4654,"EPHEMERIS_TYPE":0,"CLASSIFICATION_TYPE":"U","NORAD_CAT_ID":26895,"ELEMENT_SET_NO":999,"REV_AT_EPOCH":9007,"BSTAR":0,"MEAN_MOTION_DOT":-2.02e-6,"MEAN_MOTION_DDOT":0}]
