USA 157 (MILSTAR-2 2)   
1 26715U 01009A   26095.48908777  .00000111  00000+0  00000+0 0  9994
2 26715  11.4641  20.2073 0037469 181.6456  18.0076  1.00268177 32216
TITAN 4 CENTAUR R/B     
1 26716U 01009B   26090.60863471 -.00000246  00000+0  00000+0 0  9995
2 26716  12.5690  12.8598 0013543 143.8283 216.2324  1.00465344 25470
ARIANE 2 DEB            
1 26717U 89006C   26095.21520897  .00000074  00000+0  16453-2 0  9993
2 26717   7.6997 178.5013 7168713 236.5171 121.1537  2.26353815208821
ARIANE 5 R/B            
1 26721U 01011C   26095.53939352 -.00000036  00000+0  12741-2 0  9998
2 26721   1.9292 321.7070 7053136 142.4655 120.1996  2.24567027205780
ARIANE 5 DEB [SYLDA]    
1 26722U 01011D   26095.19075279  .00000101  00000+0  10534-1 0  9999
2 26722   2.4377 338.2920 7076379  99.2222 339.5125  2.22959847204288
BLOCK DM-SL R/B         
1 26725U 01012B   26095.51420491 -.00000053  00000+0  11156-2 0  9998
2 26725   1.5039  19.0039 7053112  97.7676 168.0999  2.23578787204709
EKRAN 21                
1 26736U 01014A   26095.27544973 -.00000170  00000+0  00000+0 0  9990
2 26736  14.5776  13.7222 0028416  68.4123 132.0753  0.99585132 91203
BREEZE-M R/B            
1 26738U 01014C   26095.25646126 -.00000058  00000+0  00000+0 0  9998
2 26738  15.1923  14.8282 0179604 233.6189 282.2115  0.97963367 89449
GSAT-1                  
1 26745U 01015A   26095.62126793 -.00000277  00000+0  00000+0 0  9994
2 26745  12.7728   4.3731 0237072 292.2206 187.7757  1.03822757 94779
BLOCK DM-SL R/B         
1 26762U 01018B   26095.51273156 -.00000152  00000+0 -10692-2 0  9994
2 26762   1.1278  79.7753 7045854  71.1686  38.6692  2.23847514203818
BLOCK DM R/B            
1 26769U 01019D   26095.48447553 -.00000187  00000+0  00000+0 0  9998
2 26769  18.5372  10.7610 5172865 348.2027 203.2955  1.86702133169781
ARIANE 3 DEB            
1 26807U 88081H   26094.84423655 -.00000186  00000+0  00000+0 0  9990
2 26807   6.3728 349.2805 7045547   5.0963   9.0095  2.17374751211012
ARIANE 44LP DEB         
1 26812U 88109P   26095.52932446 -.00000176  00000+0  00000+0 0  9995
2 26812   6.2711 190.8375 7017054 169.4850 332.4226  2.21748646228585
SL-12 R/B(2)            
1 26855U 01025C   26094.58890137 -.00000131  00000+0  00000+0 0  9990
2 26855  15.0485 111.2632 4960098 255.2441  62.6640  1.84790960167424
IUS R/B(2)              
1 26883U 01033D   26094.65584762 -.00000293  00000+0  00000+0 0  9991
2 26883  12.8536  17.2403 0007211   4.6960 355.2658  0.99897006 25051
COSMOS 2379             
1 26892U 01037A   26094.60059808 -.00000351  00000+0  00000+0 0  9993
2 26892  13.2009  14.8153 0005863 246.4407 276.9314  1.00306619 90125
SL-12 R/B(2)            
1 26895U 01037D   26095.56562662 -.00000202  00000+0  00000+0 0  9994
2 26895  13.1966  15.0366 0019835  77.3336  32.4654  1.00186763 90076
